0 THORAD AGENA D DEB
1 19423U 70025QB  13286.36703772  .00007665  00000-0  23853-2 0  2257
2 19423 099.8035 232.2984 0060118 055.8880 073.9385 14.40236857450436
0 THORAD AGENA D DEB
1 19423U 70025QB  13288.31796586  .00012793  00000-0  39647-2 0  2266
2 19423 099.8023 234.5339 0059679 050.4861 109.1428 14.40274627450710
0 THORAD AGENA D DEB
1 19423U 70025QB  13289.35829003  .00011651  00000-0  36116-2 0  2273
2 19423 099.8021 235.7237 0059586 047.4809 103.2746 14.40296837450864
0 THORAD AGENA D DEB
1 19423U 70025QB  13291.84083663  .00010436  00000-0  32334-2 0  2283
2 19423 099.8055 238.5631 0059879 040.7662 015.2547 14.40347097451225
0 THORAD AGENA D DEB
1 19423U 70025QB  13293.31873897  .00011741  00000-0  36325-2 0  2298
2 19423 099.8074 240.2546 0059870 036.6499 118.4990 14.40377641451433
0 THORAD AGENA D DEB
1 19423U 70025QB  13294.82941973  .00014500  00000-0  44778-2 0  2305
2 19423 099.8091 241.9838 0059858 032.3366 031.9825 14.40405771451652
